{
  "type": "FeatureCollection",
  "features": [
    {
      "type": "Feature",
      "properties": {
        "norad_id": 30218,
        "name": "FENGYUN 1C DEB",
        "group": "fengyun-1c-debris",
        "lat": -10.971448942727184,
        "lon": -96.72293902719159,
        "alt_km": 759.4657252421866,
        "timestamp": "2025-12-21T09:37:22.929365+00:00",
        "meta_object_name": "FENGYUN 1C DEB",
        "meta_object_id": "1999-025WB",
        "meta_epoch": "2025-12-18T05:14:14.517312",
        "meta_mean_motion": 14.28872853,
        "meta_eccentricity": 0.00708922,
        "meta_inclination": 98.9877,
        "meta_ra_of_asc_node": 81.7565,
        "meta_arg_of_pericenter": 238.3135,
        "meta_mean_anomaly": 150.3932,
        "meta_ephemeris_type": 0,
        "meta_classification_type": "U",
        "meta_norad_cat_id": 30218,
        "meta_element_set_no": 999,
        "meta_rev_at_epoch": 97187,
        "meta_bstar": 0.0020912898,
        "meta_mean_motion_dot": 5.378e-05,
        "meta_mean_motion_ddot": 0,
        "tle_line1": "1 30218U 99025WB  25352.21822358  .00005378  00000+0  20913-2 0  9996",
        "tle_line2": "2 30218  98.9877  81.7565 0070892 238.3135 150.3932 14.28872853971870"
      },
      "geometry": {
        "type": "Point",
        "coordinates": [
          -96.72293902719159,
          -10.971448942727184
        ]
      }
    },
    {
      "type": "Feature",
      "properties": {
        "norad_id": 30221,
        "name": "FENGYUN 1C DEB",
        "group": "fengyun-1c-debris",
        "lat": -81.02114522956963,
        "lon": 177.11479905873364,
        "alt_km": 774.0145883391242,
        "timestamp": "2025-12-21T09:37:22.929375+00:00",
        "meta_object_name": "FENGYUN 1C DEB",
        "meta_object_id": "1999-025WE",
        "meta_epoch": "2025-12-21T05:03:12.222432",
        "meta_mean_motion": 14.45826257,
        "meta_eccentricity": 0.0145009,
        "meta_inclination": 98.956,
        "meta_ra_of_asc_node": 83.3478,
        "meta_arg_of_pericenter": 16.1911,
        "meta_mean_anomaly": 344.3842,
        "meta_ephemeris_type": 0,
        "meta_classification_type": "U",
        "meta_norad_cat_id": 30221,
        "meta_element_set_no": 999,
        "meta_rev_at_epoch": 99523,
        "meta_bstar": 0.00013738,
        "meta_mean_motion_dot": 4.99e-06,
        "meta_mean_motion_ddot": 0,
        "tle_line1": "1 30221U 99025WE  25355.21055813  .00000499  00000+0  13738-3 0  9994",
        "tle_line2": "2 30221  98.9560  83.3478 0145009  16.1911 344.3842 14.45826257995238"
      },
      "geometry": {
        "type": "Point",
        "coordinates": [
          177.11479905873364,
          -81.02114522956963
        ]
      }
    },
    {
      "type": "Feature",
      "properties": {
        "norad_id": 30222,
        "name": "FENGYUN 1C DEB",
        "group": "fengyun-1c-debris",
        "lat": 26.888513280095626,
        "lon": 24.025567188329553,
        "alt_km": 852.2372856815309,
        "timestamp": "2025-12-21T09:37:22.929385+00:00",
        "meta_object_name": "FENGYUN 1C DEB",
        "meta_object_id": "1999-025WF",
        "meta_epoch": "2025-12-21T01:05:04.350336",
        "meta_mean_motion": 14.04076024,
        "meta_eccentricity": 0.0037464,
        "meta_inclination": 98.84,
        "meta_ra_of_asc_node": 28.2055,
        "meta_arg_of_pericenter": 14.0573,
        "meta_mean_anomaly": 15.8651,
        "meta_ephemeris_type": 0,
        "meta_classification_type": "U",
        "meta_norad_cat_id": 30222,
        "meta_element_set_no": 999,
        "meta_rev_at_epoch": 96955,
        "meta_bstar": 0.00013781,
        "meta_mean_motion_dot": 1.77e-06,
        "meta_mean_motion_ddot": 0,
        "tle_line1": "1 30222U 99025WF  25355.04518924  .00000177  00000+0  13781-3 0  9994",
        "tle_line2": "2 30222  98.8400  28.2055 0037464  14.0573  15.8651 14.04076024969554"
      },
      "geometry": {
        "type": "Point",
        "coordinates": [
          24.025567188329553,
          26.888513280095626
        ]
      }
    },
    {
      "type": "Feature",
      "properties": {
        "norad_id": 30224,
        "name": "FENGYUN 1C DEB",
        "group": "fengyun-1c-debris",
        "lat": 51.005289910402134,
        "lon": -133.77471860593835,
        "alt_km": 1003.5898471584978,
        "timestamp": "2025-12-21T09:37:22.929395+00:00",
        "meta_object_name": "FENGYUN 1C DEB",
        "meta_object_id": "1999-025WH",
        "meta_epoch": "2025-12-21T02:13:55.236288",
        "meta_mean_motion": 13.89873781,
        "meta_eccentricity": 0.0111006,
        "meta_inclination": 99.483,
        "meta_ra_of_asc_node": 33.9977,
        "meta_arg_of_pericenter": 320.8126,
        "meta_mean_anomaly": 66.7917,
        "meta_ephemeris_type": 0,
        "meta_classification_type": "U",
        "meta_norad_cat_id": 30224,
        "meta_element_set_no": 999,
        "meta_rev_at_epoch": 95857,
        "meta_bstar": 0.00029591,
        "meta_mean_motion_dot": 3.35e-06,
        "meta_mean_motion_ddot": 0,
        "tle_line1": "1 30224U 99025WH  25355.09300042  .00000335  00000+0  29591-3 0  9993",
        "tle_line2": "2 30224  99.4830  33.9977 0111006 320.8126  66.7917 13.89873781958570"
      },
      "geometry": {
        "type": "Point",
        "coordinates": [
          -133.77471860593835,
          51.005289910402134
        ]
      }
    },
    {
      "type": "Feature",
      "properties": {
        "norad_id": 30225,
        "name": "FENGYUN 1C DEB",
        "group": "fengyun-1c-debris",
        "lat": 3.599569745668991,
        "lon": 21.370976411232828,
        "alt_km": 804.7798508347369,
        "timestamp": "2025-12-21T09:37:22.929405+00:00",
        "meta_object_name": "FENGYUN 1C DEB",
        "meta_object_id": "1999-025WJ",
        "meta_epoch": "2025-12-21T01:22:31.431936",
        "meta_mean_motion": 14.1518949,
        "meta_eccentricity": 0.0100325,
        "meta_inclination": 98.6589,
        "meta_ra_of_asc_node": 21.5866,
        "meta_arg_of_pericenter": 62.3594,
        "meta_mean_anomaly": 352.5535,
        "meta_ephemeris_type": 0,
        "meta_classification_type": "U",
        "meta_norad_cat_id": 30225,
        "meta_element_set_no": 999,
        "meta_rev_at_epoch": 97654,
        "meta_bstar": 0.00013255,
        "meta_mean_motion_dot": 2.28e-06,
        "meta_mean_motion_ddot": 0,
        "tle_line1": "1 30225U 99025WJ  25355.05730824  .00000228  00000+0  13255-3 0  9996",
        "tle_line2": "2 30225  98.6589  21.5866 0100325  62.3594 352.5535 14.15189490976548"
      },
      "geometry": {
        "type": "Point",
        "coordinates": [
          21.370976411232828,
          3.599569745668991
        ]
      }
    },
    {
      "type": "Feature",
      "properties": {
        "norad_id": 30229,
        "name": "FENGYUN 1C DEB",
        "group": "fengyun-1c-debris",
        "lat": -37.41399891020468,
        "lon": -131.17162164072877,
        "alt_km": 721.2348786060284,
        "timestamp": "2025-12-21T09:37:22.929415+00:00",
        "meta_object_name": "FENGYUN 1C DEB",
        "meta_object_id": "1999-025WN",
        "meta_epoch": "2025-12-21T03:57:59.073120",
        "meta_mean_motion": 14.60670717,
        "meta_eccentricity": 0.0037011,
        "meta_inclination": 99.0618,
        "meta_ra_of_asc_node": 55.583,
        "meta_arg_of_pericenter": 14.5163,
        "meta_mean_anomaly": 44.8737,
        "meta_ephemeris_type": 0,
        "meta_classification_type": "U",
        "meta_norad_cat_id": 30229,
        "meta_element_set_no": 999,
        "meta_rev_at_epoch": 99049,
        "meta_bstar": 0.0010852,
        "meta_mean_motion_dot": 5.282e-05,
        "meta_mean_motion_ddot": 0,
        "tle_line1": "1 30229U 99025WN  25355.16526705  .00005282  00000+0  10852-2 0  9997",
        "tle_line2": "2 30229  99.0618  55.5830 0037011  14.5163  44.8737 14.60670717990492"
      },
      "geometry": {
        "type": "Point",
        "coordinates": [
          -131.17162164072877,
          -37.41399891020468
        ]
      }
    },
    {
      "type": "Feature",
      "properties": {
        "norad_id": 30231,
        "name": "FENGYUN 1C DEB",
        "group": "fengyun-1c-debris",
        "lat": -1.2766854960473821,
        "lon": 40.19771394701286,
        "alt_km": 764.6163568397324,
        "timestamp": "2025-12-21T09:37:22.929425+00:00",
        "meta_object_name": "FENGYUN 1C DEB",
        "meta_object_id": "1999-025WQ",
        "meta_epoch": "2025-12-21T02:56:38.865984",
        "meta_mean_motion": 14.11661566,
        "meta_eccentricity": 0.0128034,
        "meta_inclination": 98.8044,
        "meta_ra_of_asc_node": 39.7267,
        "meta_arg_of_pericenter": 5.4686,
        "meta_mean_anomaly": 20.0411,
        "meta_ephemeris_type": 0,
        "meta_classification_type": "U",
        "meta_norad_cat_id": 30231,
        "meta_element_set_no": 999,
        "meta_rev_at_epoch": 97138,
        "meta_bstar": 0.00043732,
        "meta_mean_motion_dot": 8.16e-06,
        "meta_mean_motion_ddot": 0,
        "tle_line1": "1 30231U 99025WQ  25355.12267206  .00000816  00000+0  43732-3 0  9996",
        "tle_line2": "2 30231  98.8044  39.7267 0128034   5.4686  20.0411 14.11661566971388"
      },
      "geometry": {
        "type": "Point",
        "coordinates": [
          40.19771394701286,
          -1.2766854960473821
        ]
      }
    }
  ]
}